{"type":"FeatureCollection","features":[{"type":"Feature","properties":{"SABL_PWSID":"CA3710010","NAME":"Helix Water District","source":"SWRCB SABL, generalized 200 ft"},"geometry":{"type":"Polygon","coordinates":[[[-116.87942,32.84456],[-116.87903,32.84394],[-116.88092,32.84343],[-116.88018,32.84218],[-116.88092,32.84068],[-116.88367,32.84086],[-116.88576,32.83933],[-116.88708,32.83418],[-116.88896,32.83162],[-116.89169,32.83169],[-116.89396,32.83047],[-116.8944,32.8289],[-116.89939,32.82799],[-116.89956,32.8287],[-116.90727,32.82412],[-116.90876,32.82203],[-116.90827,32.8204],[-116.90925,32.82055],[-116.91066,32.8183],[-116.90946,32.8181],[-116.90966,32.81386],[-116.90774,32.81501],[-116.906,32.81341],[-116.90522,32.81529],[-116.90232,32.8151],[-116.90113,32.81109],[-116.89816,32.80933],[-116.89982,32.80747],[-116.9021,32.80804],[-116.89988,32.8046],[-116.89589,32.80192],[-116.89574,32.79965],[-116.89759,32.79863],[-116.89738,32.7938],[-116.89332,32.79443],[-116.89109,32.7936],[-116.89403,32.79317],[-116.89319,32.78769],[-116.90462,32.78767],[-116.905,32.78846],[-116.90613,32.78738],[-116.90625,32.77858],[-116.91063,32.77852],[-116.91058,32.78037],[-116.91482,32.78063],[-116.91484,32.77676],[-116.91654,32.77745],[-116.91702,32.77644],[-116.91909,32.77643],[-116.91912,32.77308],[-116.93646,32.77305],[-116.93656,32.76215],[-116.94505,32.7622],[-116.94505,32.7586],[-116.94978,32.75856],[-116.94881,32.75645],[-116.94931,32.75496],[-116.95357,32.75499],[-116.95356,32.75124],[-116.95777,32.75131],[-116.95778,32.75313],[-116.96062,32.75343],[-116.95995,32.75132],[-116.96198,32.7513],[-116.96204,32.7468],[-116.96324,32.74598],[-116.9621,32.74568],[-116.96221,32.73665],[-116.97901,32.73623],[-116.98016,32.73488],[-116.97986,32.73074],[-116.98166,32.73052],[-116.98183,32.72967],[-116.99108,32.72955],[-116.99109,32.72844],[-116.99207,32.72846],[-116.99208,32.72955],[-116.99515,32.72953],[-116.99519,32.72735],[-116.99708,32.7274],[-116.99726,32.71492],[-117.00593,32.7148],[-117.00609,32.70954],[-117.00827,32.70958],[-117.00817,32.71219],[-117.0096,32.71219],[-117.00957,32.71353],[-117.01032,32.71353],[-117.01035,32.71219],[-117.0128,32.71219],[-117.01443,32.71624],[-117.01447,32.7202],[-117.0188,32.72027],[-117.01877,32.72493],[-117.02317,32.72497],[-117.02249,32.7243],[-117.02316,32.72408],[-117.02306,32.71838],[-117.02848,32.71868],[-117.02847,32.72118],[-117.03021,32.72171],[-117.03023,32.72025],[-117.03189,32.72027],[-117.03203,32.71545],[-117.03466,32.71667],[-117.03465,32.71799],[-117.03579,32.71784],[-117.03568,32.71863],[-117.03451,32.7186],[-117.03535,32.7212],[-117.03668,32.72029],[-117.03781,32.72068],[-117.0388,32.71957],[-117.04186,32.72064],[-117.04651,32.71515],[-117.04932,32.71515],[-117.04923,32.72966],[-117.05073,32.72964],[-117.04938,32.73144],[-117.04978,32.73334],[-117.05195,32.73382],[-117.05264,32.73229],[-117.05759,32.72994],[-117.05817,32.73087],[-117.06042,32.73107],[-117.06288,32.72948],[-117.06444,32.72947],[-117.05805,32.73374],[-117.05803,32.73858],[-117.05479,32.73862],[-117.04919,32.74355],[-117.04914,32.75565],[-117.05349,32.75577],[-117.05328,32.76321],[-117.0511,32.76319],[-117.05108,32.76601],[-117.04559,32.76607],[-117.04561,32.76756],[-117.0403,32.76765],[-117.03909,32.77036],[-117.03991,32.77138],[-117.04702,32.77092],[-117.04649,32.77348],[-117.04885,32.77442],[-117.04876,32.77732],[-117.05142,32.77795],[-117.04825,32.78042],[-117.04701,32.77975],[-117.04435,32.78011],[-117.0437,32.77745],[-117.04219,32.77908],[-117.03987,32.7796],[-117.03991,32.78137],[-117.03894,32.78173],[-117.03995,32.78198],[-117.03755,32.78312],[-117.03626,32.7859],[-117.03197,32.78876],[-117.03097,32.79053],[-117.03752,32.78882],[-117.0374,32.79142],[-117.00607,32.79129],[-117.00612,32.80946],[-116.99894,32.80951],[-116.9971,32.80807],[-116.9967,32.80945],[-116.99879,32.81104],[-116.99781,32.81219],[-116.99842,32.81411],[-116.99441,32.81128],[-116.9935,32.80916],[-116.99421,32.80863],[-116.99245,32.80849],[-116.99124,32.80946],[-116.99126,32.81353],[-116.99002,32.81352],[-116.98995,32.8149],[-116.98873,32.81457],[-116.99033,32.81854],[-116.98855,32.82017],[-116.98845,32.8181],[-116.96489,32.81858],[-116.96413,32.82859],[-116.9617,32.8286],[-116.96173,32.82967],[-116.94582,32.82963],[-116.94598,32.82655],[-116.94339,32.82477],[-116.94381,32.82421],[-116.93461,32.82405],[-116.93461,32.82497],[-116.9335,32.82497],[-116.93349,32.82409],[-116.93015,32.82409],[-116.93012,32.82586],[-116.93116,32.82586],[-116.93121,32.82969],[-116.92897,32.83032],[-116.92619,32.82834],[-116.92263,32.83138],[-116.92037,32.83043],[-116.91065,32.83878],[-116.91061,32.85113],[-116.90749,32.85115],[-116.9075,32.84987],[-116.90535,32.84986],[-116.90534,32.85113],[-116.90303,32.85113],[-116.90357,32.84756],[-116.89879,32.84712],[-116.89878,32.8512],[-116.89343,32.8512],[-116.89567,32.85166],[-116.89567,32.85751],[-116.89342,32.8575],[-116.89338,32.86614],[-116.89454,32.8666],[-116.89338,32.86768],[-116.89596,32.86579],[-116.89598,32.87065],[-116.90229,32.87168],[-116.91263,32.87036],[-116.91505,32.87239],[-116.91628,32.87238],[-116.91443,32.87387],[-116.91388,32.87582],[-116.90996,32.87506],[-116.9105,32.87316],[-116.90915,32.87289],[-116.90858,32.87479],[-116.89335,32.87163],[-116.89329,32.88568],[-116.88718,32.88725],[-116.88717,32.87489],[-116.87969,32.87967],[-116.87932,32.8792],[-116.87709,32.88075],[-116.87661,32.88],[-116.87631,32.88161],[-116.87478,32.88249],[-116.87259,32.88294],[-116.8705,32.88135],[-116.87086,32.88497],[-116.86852,32.8856],[-116.86826,32.8848],[-116.86353,32.88472],[-116.86248,32.88343],[-116.85911,32.88809],[-116.85953,32.88892],[-116.85735,32.89051],[-116.8584,32.88744],[-116.86231,32.88345],[-116.86095,32.88212],[-116.86377,32.87955],[-116.86806,32.87822],[-116.86614,32.87296],[-116.86897,32.87448],[-116.87258,32.8715],[-116.87441,32.87722],[-116.87839,32.87523],[-116.87933,32.87228],[-116.88162,32.87024],[-116.88779,32.86656],[-116.88283,32.86781],[-116.88159,32.86523],[-116.87506,32.86273],[-116.87619,32.85707],[-116.88368,32.85371],[-116.88159,32.85036],[-116.88284,32.84981],[-116.87942,32.84456]]]}}]}